2026-07-14 13:46:05,249 - main - INFO - Configuration C:\Users\Michel Tossaint\OneDrive - ESA\Documents\86 - Ipython Notebooks\SatSVS\tests\com_pfd\Config.xml validated: 0 warning(s), no errors
2026-07-14 13:46:05,250 - main - INFO - {'constellation_id': 1, 'constellation_name': 'TerraSAR-X', 'num_sat': 1, 'num_planes': 1, 'rx_constellation': '1', 'elevation_mask': [], 'el_mask_max': [], 'uere_list': [], 'tle_file_name': '../tests/com_pfd/terrasarx.txt', 'obs_inci_angle_start': None, 'obs_inci_angle_stop': None, 'obs_swath_start': None, 'obs_swath_stop': None, 'frontal_area': None, 'mass': None}
2026-07-14 13:46:05,269 - main - INFO - ['Found satellite:', '31698', 'Kepler Elements', "{'epoch_mjd': 61068.089894, 'semi_major_axis': 6886575.424946125, 'eccentricity': 0.000195, 'inclination': 1.7007360896058743, 'right_ascension': 0.6596297374987369, 'arg_perigee': 1.4079920141688655, 'mean_anomaly': 4.877706567133592}"]
2026-07-14 13:46:07,732 - main - INFO - {'constellation_id': 1, 'station_id': 1, 'station_name': 'Svalbard', 'rx_constellation': '1', 'elevation_mask': [0.0], 'el_mask_max': [1.5707963267948966], 'pos_eci': array([0., 0., 0.]), 'vel_eci': array([0., 0., 0.]), 'pos_ecf': array([1254944.19262441,  481104.81267317, 6214020.08271524]), 'vel_ecf': array([0., 0., 0.]), 'lla': array([1.35917515, 0.3660863 , 0.        ]), 'idx_sat_in_view': []}
2026-07-14 13:46:07,738 - main - INFO - {'type': 'Static', 'user_id': 0, 'rx_constellation': '1', 'name': '', 'ltan': -1, 'sso_raan_ref': None, 'sso_raan_ref_mjd': 0.0, 'elevation_mask': [0.08726646259971647], 'el_mask_max': [1.5707963267948966], 'pos_eci': array([0., 0., 0.]), 'vel_eci': array([0., 0., 0.]), 'pos_ecf': array([3923572.96352912,  299147.24517876, 5002803.34543355]), 'vel_ecf': array([0., 0., 0.]), 'norm_ecf': 0, 'lla': array([0.90757121, 0.07609636, 0.        ]), 'num_lat': 0, 'num_lon': 0, 'idx_sat_in_view': [], 'tle_file_name': '', 'kepler': <segments.KeplerSet object at 0x000001407FC1C690>}
2026-07-14 13:46:07,742 - main - INFO - Loaded simulation, start MJD: 61072.0, stop MJD: 61073.0, size time steps in sec: 30.0
2026-07-14 13:46:07,742 - main - INFO - Loaded 1 number of Station to Spacecraft links
2026-07-14 13:46:07,743 - main - INFO - Loaded 1 number of User to Spacecraft links
2026-07-14 13:46:07,743 - main - INFO - Loaded 1 number of Spacecraft to Spacecraft links
2026-07-14 13:46:07,775 - main - INFO - Loaded antenna pattern isoflux_x_band.cut: peak 6.5 dBi, theta 0.0..90.0 deg (361 points)
2026-07-14 13:46:08,379 - main - INFO - Saved antenna pattern plot to C:\Users\MICHEL~1\AppData\Local\Temp\satsvs_com_pfd_klrnuot6\com_pfd_antenna.png
2026-07-14 13:46:08,379 - main - INFO - Finished reading configuration file
2026-07-14 13:46:08,458 - main - INFO - Simulation time: 2026-02-01 00:00:00, time step: 0
2026-07-14 13:46:08,712 - main - INFO - Simulation time: 2026-02-01 00:50:00, time step: 100
2026-07-14 13:46:08,837 - main - INFO - Simulation time: 2026-02-01 01:40:00, time step: 200
2026-07-14 13:46:08,843 - main - INFO - Simulation time: 2026-02-01 02:30:00, time step: 300
2026-07-14 13:46:08,850 - main - INFO - Simulation time: 2026-02-01 03:20:00, time step: 400
2026-07-14 13:46:08,856 - main - INFO - Simulation time: 2026-02-01 04:10:00, time step: 500
2026-07-14 13:46:08,863 - main - INFO - Simulation time: 2026-02-01 05:00:00, time step: 600
2026-07-14 13:46:08,868 - main - INFO - Simulation time: 2026-02-01 05:50:00, time step: 700
2026-07-14 13:46:08,876 - main - INFO - Simulation time: 2026-02-01 06:40:00, time step: 800
2026-07-14 13:46:08,881 - main - INFO - Simulation time: 2026-02-01 07:30:00, time step: 900
2026-07-14 13:46:08,888 - main - INFO - Simulation time: 2026-02-01 08:20:00, time step: 1000
2026-07-14 13:46:08,894 - main - INFO - Simulation time: 2026-02-01 09:10:00, time step: 1100
2026-07-14 13:46:08,901 - main - INFO - Simulation time: 2026-02-01 10:00:00, time step: 1200
2026-07-14 13:46:08,908 - main - INFO - Simulation time: 2026-02-01 10:50:00, time step: 1300
2026-07-14 13:46:08,914 - main - INFO - Simulation time: 2026-02-01 11:40:00, time step: 1400
2026-07-14 13:46:08,921 - main - INFO - Simulation time: 2026-02-01 12:30:00, time step: 1500
2026-07-14 13:46:08,927 - main - INFO - Simulation time: 2026-02-01 13:20:00, time step: 1600
2026-07-14 13:46:08,934 - main - INFO - Simulation time: 2026-02-01 14:10:00, time step: 1700
2026-07-14 13:46:08,940 - main - INFO - Simulation time: 2026-02-01 15:00:00, time step: 1800
2026-07-14 13:46:08,947 - main - INFO - Simulation time: 2026-02-01 15:50:00, time step: 1900
2026-07-14 13:46:08,954 - main - INFO - Simulation time: 2026-02-01 16:40:00, time step: 2000
2026-07-14 13:46:08,961 - main - INFO - Simulation time: 2026-02-01 17:30:00, time step: 2100
2026-07-14 13:46:08,967 - main - INFO - Simulation time: 2026-02-01 18:20:00, time step: 2200
2026-07-14 13:46:08,975 - main - INFO - Simulation time: 2026-02-01 19:10:00, time step: 2300
2026-07-14 13:46:08,981 - main - INFO - Simulation time: 2026-02-01 20:00:00, time step: 2400
2026-07-14 13:46:08,987 - main - INFO - Simulation time: 2026-02-01 20:50:00, time step: 2500
2026-07-14 13:46:08,993 - main - INFO - Simulation time: 2026-02-01 21:40:00, time step: 2600
2026-07-14 13:46:08,999 - main - INFO - Simulation time: 2026-02-01 22:30:00, time step: 2700
2026-07-14 13:46:09,005 - main - INFO - Simulation time: 2026-02-01 23:20:00, time step: 2800
2026-07-14 13:46:09,011 - main - INFO - Plotting analysis com_pfd
2026-07-14 13:46:09,017 - main - INFO - Written data dump com_pfd.csv (304 rows)
2026-07-14 13:46:09,017 - main - INFO - com_pfd: worst margin 19.1 dB at 84.5 deg elevation (PFD -159.1 vs limit -140.0 dB(W/m2) in 4 kHz)
